{
  "norad_id": 42839,
  "name": "LEMUR-2-MONSON",
  "history": [
    {
      "epoch": "2026-03-28T11:40:35.640768Z",
      "apogee_km": 492.81784573728146,
      "perigee_km": 484.9518095741387,
      "latitude_deg": -3.5795106131568234e-05,
      "longitude_deg": -92.3261739006506,
      "height_km": 491.4736580196578,
      "semi_major_axis_km": 6867.02182765571,
      "eccentricity": 0.00057274,
      "inclination_deg": 97.405,
      "raan_deg": 268.7286,
      "arg_perigee_deg": 277.5278,
      "mean_anomaly_deg": 82.5309,
      "mean_motion_rev_day": 15.25633162
    },
    {
      "epoch": "2026-03-29T00:16:10.189920Z",
      "apogee_km": 492.7619766182179,
      "perigee_km": 484.88420000490714,
      "latitude_deg": 4.018253655541478e-05,
      "longitude_deg": 78.7823880137596,
      "height_km": 491.5614216967704,
      "semi_major_axis_km": 6866.960088311562,
      "eccentricity": 0.0005736,
      "inclination_deg": 97.4048,
      "raan_deg": 269.2483,
      "arg_perigee_deg": 275.3292,
      "mean_anomaly_deg": 84.7292,
      "mean_motion_rev_day": 15.25653737
    }
  ]
}